OBJECT_NAME,OBJECT_ID,EPOCH,MEAN_MOTION,ECCENTRICITY,INCLINATION,RA_OF_ASC_NODE,ARG_OF_PERICENTER,MEAN_ANOMALY,EPHEMERIS_TYPE,CLASSIFICATION_TYPE,NORAD_CAT_ID,ELEMENT_SET_NO,REV_AT_EPOCH,BSTAR,MEAN_MOTION_DOT,MEAN_MOTION_DDOT
SAUDISAT 5A,2018-102A,2026-06-09T12:04:06.595968,15.27967687,.0010456,97.3072,222.2321,153.0800,207.0984,0,U,43831,999,41450,.18303E-3,.4928E-4,0
SAUDISAT 5B,2018-102C,2026-06-09T12:33:07.168896,15.28228813,.0011097,97.3179,225.3076,155.5657,204.6111,0,U,43833,999,41462,.17041E-3,.4621E-4,0
GAOFEN-10R,2019-066A,2026-06-09T12:42:49.699296,14.83043991,.0006152,98.0494,114.0534,148.7999,211.3580,0,U,44622,999,36124,.14183E-3,.1099E-4,0
CARTOSAT-3,2019-081A,2026-06-09T12:24:39.877344,15.19228659,.0012419,97.4308,222.5075,174.2535,185.8844,0,U,44804,999,36230,.20423E-3,.4241E-4,0
GAOFEN-12 01,2019-082A,2026-06-09T12:14:11.604192,14.80452234,.0002463,97.8106,167.0920,79.3766,280.7723,0,U,44819,999,35295,.53287E-4,.357E-5,0
CSG-1,2019-092A,2026-06-09T11:45:49.698720,14.82158443,.0001432,97.8887,344.2043,90.7147,269.4230,0,U,44873,999,35033,.56804E-4,.4E-5,0
NEMO-HD,2020-061F,2026-06-09T11:38:09.075264,15.44437974,.0002531,97.1924,222.5161,89.2072,270.9466,0,U,46277,999,32079,.2115E-3,.9698E-4,0
SENTINEL-6A,2020-086A,2026-06-09T08:32:35.490048,12.80929816,.0007939,66.0386,151.3179,270.2967,89.7139,0,U,46984,999,25932,.13566E-3,-.3E-6,0
CAS500-1,2021-022A,2026-06-09T13:24:58.832064,15.20116217,.0004471,97.3911,55.9667,336.8234,23.2799,0,U,47932,999,28960,.69119E-4,.1426E-4,0
GAOFEN-12 02,2021-026A,2026-06-09T12:28:56.148384,14.80290202,.0003349,97.9920,158.7321,255.7002,104.3838,0,U,48079,999,28062,.53799E-4,.357E-5,0
PLEIADES NEO 3,2021-034A,2026-06-09T11:41:09.641760,14.81670077,.0001382,97.8926,235.3646,87.3822,272.7549,0,U,48268,999,27651,.11217E-3,.831E-5,0
PLEIADES NEO 4,2021-073E,2026-06-08T23:31:49.386144,14.81666705,.00013962,97.8928,234.8608,84.4017,275.7355,0,U,49070,999,26015,.18495191E-3,.1403E-4,0
LANDSAT 9,2021-088A,2026-06-09T10:28:59.369664,14.57105268,.0001452,98.2279,230.7077,88.0861,272.0504,0,U,49260,999,24987,.6757E-4,.259E-5,0
CSG-2,2022-008A,2026-06-09T12:34:25.036032,14.82149937,.0001375,97.8890,344.2327,84.7401,275.3969,0,U,51444,999,23545,.307E-4,.192E-5,0
GAOFEN-12 03,2022-069A,2026-06-09T13:10:00.858720,14.80021593,.0001769,97.8288,48.6108,110.2687,249.8715,0,U,52912,999,21348,.56781E-4,.379E-5,0
SWOT,2022-173A,2026-06-09T11:39:11.589120,14.00168643,.0000215,77.6112,45.7073,96.3134,263.8042,0,U,54754,999,17807,.47148E-4,.67E-6,0
GAOFEN-12 04,2023-123A,2026-06-09T11:58:08.295168,14.80213745,.0001788,97.9126,78.6268,86.5265,273.6152,0,U,57654,999,15149,.12406E-3,.891E-5,0
PARS 1,2024-039Q,2026-06-09T13:05:50.391168,15.45565924,.0010998,97.4818,141.2257,134.3508,225.8644,0,U,59065,999,12746,.21131E-3,.10086E-3,0
RESURS-P 4,2024-061A,2026-06-09T13:21:10.770624,15.32087623,.0001583,97.2745,108.5882,131.8625,228.2753,0,U,59371,999,12259,.96099E-4,.2901E-4,0
LEGION 1,2024-081A,2026-06-09T12:11:04.843680,15.16613427,.0010224,97.5016,238.4469,42.8359,317.3668,0,U,59625,999,11637,.18308E-3,.3514E-4,0
LEGION 2,2024-081B,2026-06-09T11:19:05.547072,15.16592785,.0011519,97.5016,238.5088,11.0846,349.0639,0,U,59626,999,11637,.16368E-3,.3134E-4,0
ALOS-4 (DAICHI-4),2024-123A,2026-06-09T12:23:02.537376,14.79470028,.0001629,97.9241,257.7974,97.4503,262.6894,0,U,60182,999,10474,.18376E-3,.1321E-4,0
LEGION 3,2024-146A,2026-06-09T11:41:38.284224,15.15980591,.000695,45.0014,71.8488,121.7076,238.4481,0,U,60452,999,10085,.22514E-3,.4135E-4,0
LEGION 4,2024-146B,2026-06-09T10:11:07.376352,15.15976673,.0014087,45.0004,164.0972,267.9650,91.9615,0,U,60453,999,9969,.15899E-3,.2844E-4,0
SENTINEL-2C,2024-157A,2026-06-09T11:31:32.136384,14.30815732,.0001156,98.5692,235.3710,79.8034,280.3280,0,U,60989,999,9188,.49423E-4,.86E-6,0
IONOSFERA-M 1,2024-199A,2026-06-09T12:40:41.815200,14.22752823,.0001723,98.7183,33.7810,120.7299,239.4048,0,U,61735,999,12661,.34857E-4,.34E-6,0
IONOSFERA-M 2,2024-199B,2026-06-09T11:48:50.391360,14.22756094,.0001348,98.7182,33.6561,45.8273,314.3015,0,U,61736,999,12973,.4013E-4,.46E-6,0
PRSC-EO1,2025-012A,2026-06-09T13:02:45.281760,15.17672079,.0004204,97.4226,233.1526,286.9873,73.0899,0,U,62725,999,7703,.31738E-3,.6328E-4,0
BIOMASS,2025-090A,2026-06-09T12:48:09.641088,14.67532532,.000136,98.0742,347.9614,90.5225,269.6136,0,U,63772,999,5956,.13269E-3,.704E-5,0
GOSAT-GW (IBUKI GW),2025-141A,2026-06-09T13:17:30.473952,14.67552758,.0001437,98.0569,97.9951,84.7878,275.3491,0,U,64694,999,5072,.1236E-3,.653E-5,0
IONOSFERA-M 3,2025-155A,2026-06-09T12:04:24.015936,14.21485194,.0000538,98.6021,122.6017,172.6075,187.5111,0,U,64876,999,4531,.43704E-4,.53E-6,0
