SAUDISAT 5A             
1 43831U 18102A   26160.50285412  .00004928  00000+0  18303-3 0  9993
2 43831  97.3072 222.2321 0010456 153.0800 207.0984 15.27967687414508
SAUDISAT 5B             
1 43833U 18102C   26160.52299964  .00004621  00000+0  17041-3 0  9992
2 43833  97.3179 225.3076 0011097 155.5657 204.6111 15.28228813414628
GAOFEN-10R              
1 44622U 19066A   26160.52974189  .00001099  00000+0  14183-3 0  9998
2 44622  98.0494 114.0534 0006152 148.7999 211.3580 14.83043991361241
CARTOSAT-3              
1 44804U 19081A   26160.51712821  .00004241  00000+0  20423-3 0  9995
2 44804  97.4308 222.5075 0012419 174.2535 185.8844 15.19228659362300
GAOFEN-12 01            
1 44819U 19082A   26160.50985653  .00000357  00000+0  53287-4 0  9995
2 44819  97.8106 167.0920 0002463  79.3766 280.7723 14.80452234352953
CSG-1                   
1 44873U 19092A   26160.49015855  .00000400  00000+0  56804-4 0  9999
2 44873  97.8887 344.2043 0001432  90.7147 269.4230 14.82158443350333
NEMO-HD                 
1 46277U 20061F   26160.48482726  .00009698  00000+0  21150-3 0  9994
2 46277  97.1924 222.5161 0002531  89.2072 270.9466 15.44437974320791
SENTINEL-6A             
1 46984U 20086A   26160.35596632 -.00000030  00000+0  13566-3 0  9998
2 46984  66.0386 151.3179 0007939 270.2967  89.7139 12.80929816259324
CAS500-1                
1 47932U 21022A   26160.55901426  .00001426  00000+0  69119-4 0  9991
2 47932  97.3911  55.9667 0004471 336.8234  23.2799 15.20116217289603
GAOFEN-12 02            
1 48079U 21026A   26160.52009431  .00000357  00000+0  53799-4 0  9999
2 48079  97.9920 158.7321 0003349 255.7002 104.3838 14.80290202280626
PLEIADES NEO 3          
1 48268U 21034A   26160.48691715  .00000831  00000+0  11217-3 0  9990
2 48268  97.8926 235.3646 0001382  87.3822 272.7549 14.81670077276512
PLEIADES NEO 4          
1 49070U 21073E   26159.98043271  .00001403  00000+0  18495-3 0  9997
2 49070  97.8928 234.8608 0001396  84.4017 275.7355 14.81666705260151
LANDSAT 9               
1 49260U 21088A   26160.43679826  .00000259  00000+0  67570-4 0  9994
2 49260  98.2279 230.7077 0001452  88.0861 272.0504 14.57105268249878
CSG-2                   
1 51444U 22008A   26160.52390088  .00000192  00000+0  30700-4 0  9995
2 51444  97.8890 344.2327 0001375  84.7401 275.3969 14.82149937235454
GAOFEN-12 03            
1 52912U 22069A   26160.54862105  .00000379  00000+0  56781-4 0  9993
2 52912  97.8288  48.6108 0001769 110.2687 249.8715 14.80021593213485
SWOT                    
1 54754U 22173A   26160.48555080  .00000067  00000+0  47148-4 0  9990
2 54754  77.6112  45.7073 0000215  96.3134 263.8042 14.00168643178072
GAOFEN-12 04            
1 57654U 23123A   26160.49870712  .00000891  00000+0  12406-3 0  9994
2 57654  97.9126  78.6268 0001788  86.5265 273.6152 14.80213745151497
PARS 1                  
1 59065U 24039Q   26160.54572212  .00010086  00000+0  21131-3 0  9991
2 59065  97.4818 141.2257 0010998 134.3508 225.8644 15.45565924127464
RESURS-P 4              
1 59371U 24061A   26160.55637466  .00002901  00000+0  96099-4 0  9993
2 59371  97.2745 108.5882 0001583 131.8625 228.2753 15.32087623122591
LEGION 1                
1 59625U 24081A   26160.50769495  .00003514  00000+0  18308-3 0  9997
2 59625  97.5016 238.4469 0010224  42.8359 317.3668 15.16613427116371
LEGION 2                
1 59626U 24081B   26160.47159198  .00003134  00000+0  16368-3 0  9999
2 59626  97.5016 238.5088 0011519  11.0846 349.0639 15.16592785116370
ALOS-4 (DAICHI-4)       
1 60182U 24123A   26160.51600159  .00001321  00000+0  18376-3 0  9995
2 60182  97.9241 257.7974 0001629  97.4503 262.6894 14.79470028104743
LEGION 3                
1 60452U 24146A   26160.48724866  .00004135  00000+0  22514-3 0  9993
2 60452  45.0014  71.8488 0006950 121.7076 238.4481 15.15980591100851
LEGION 4                
1 60453U 24146B   26160.42439093  .00002844  00000+0  15899-3 0  9996
2 60453  45.0004 164.0972 0014087 267.9650  91.9615 15.15976673 99691
SENTINEL-2C             
1 60989U 24157A   26160.48023306  .00000086  00000+0  49423-4 0  9991
2 60989  98.5692 235.3710 0001156  79.8034 280.3280 14.30815732 91881
IONOSFERA-M 1           
1 61735U 24199A   26160.52826175  .00000034  00000+0  34857-4 0  9995
2 61735  98.7183  33.7810 0001723 120.7299 239.4048 14.22752823126617
IONOSFERA-M 2           
1 61736U 24199B   26160.49224990  .00000046  00000+0  40130-4 0  9993
2 61736  98.7182  33.6561 0001348  45.8273 314.3015 14.22756094129738
PRSC-EO1                
1 62725U 25012A   26160.54357965  .00006328  00000+0  31738-3 0  9994
2 62725  97.4226 233.1526 0004204 286.9873  73.0899 15.17672079 77037
BIOMASS                 
1 63772U 25090A   26160.53344492  .00000704  00000+0  13269-3 0  9994
2 63772  98.0742 347.9614 0001360  90.5225 269.6136 14.67532532 59560
GOSAT-GW (IBUKI GW)     
1 64694U 25141A   26160.55382493  .00000653  00000+0  12360-3 0  9994
2 64694  98.0569  97.9951 0001437  84.7878 275.3491 14.67552758 50720
IONOSFERA-M 3           
1 64876U 25155A   26160.50305574  .00000053  00000+0  43704-4 0  9992
2 64876  98.6021 122.6017 0000538 172.6075 187.5111 14.21485194 45318
